{
  "type": "FeatureCollection",
  "features": [
    {
      "type": "Feature",
      "properties": {
        "norad_id": 37238,
        "name": "INTELSAT 17 (IS-17)",
        "group": "intelsat",
        "lat": -0.0009918819999922548,
        "lon": 14.963225830660576,
        "alt_km": 35786.018240078585,
        "timestamp": "2025-12-20T14:38:01.626286+00:00",
        "meta_object_name": "INTELSAT 17 (IS-17)",
        "meta_object_id": "2010-065B",
        "meta_epoch": "2025-12-20T04:59:03.496704",
        "meta_mean_motion": 1.00271062,
        "meta_eccentricity": 0.00026646,
        "meta_inclination": 0.0019,
        "meta_ra_of_asc_node": 97.7927,
        "meta_arg_of_pericenter": 188.5995,
        "meta_mean_anomaly": 303.4123,
        "meta_ephemeris_type": 0,
        "meta_classification_type": "U",
        "meta_norad_cat_id": 37238,
        "meta_element_set_no": 999,
        "meta_rev_at_epoch": 5145,
        "meta_bstar": 0,
        "meta_mean_motion_dot": 2.2e-07,
        "meta_mean_motion_ddot": 0,
        "tle_line1": "1 37238U 10065B   25354.20767936  .00000022  00000+0  00000+0 0  9996",
        "tle_line2": "2 37238   0.0019  97.7927 0002664 188.5995 303.4123  1.00271062 51459"
      },
      "geometry": {
        "type": "Point",
        "coordinates": [
          14.963225830660576,
          -0.0009918819999922548
        ]
      }
    },
    {
      "type": "Feature",
      "properties": {
        "norad_id": 37392,
        "name": "INTELSAT 28 (IS-28)",
        "group": "intelsat",
        "lat": -0.31295873765218957,
        "lon": -82.75490831620861,
        "alt_km": 35771.09937469775,
        "timestamp": "2025-12-20T14:38:01.626297+00:00",
        "meta_object_name": "INTELSAT 28 (IS-28)",
        "meta_object_id": "2011-016A",
        "meta_epoch": "2025-12-20T03:15:38.761056",
        "meta_mean_motion": 1.00270022,
        "meta_eccentricity": 0.00036825,
        "meta_inclination": 1.3426,
        "meta_ra_of_asc_node": 84.9767,
        "meta_arg_of_pericenter": 187.705,
        "meta_mean_anomaly": 193.5111,
        "meta_ephemeris_type": 0,
        "meta_classification_type": "U",
        "meta_norad_cat_id": 37392,
        "meta_element_set_no": 999,
        "meta_rev_at_epoch": 5149,
        "meta_bstar": 0,
        "meta_mean_motion_dot": -2.02e-06,
        "meta_mean_motion_ddot": 0,
        "tle_line1": "1 37392U 11016A   25354.13586529 -.00000202  00000+0  00000+0 0  9994",
        "tle_line2": "2 37392   1.3426  84.9767 0003682 187.7050 193.5111  1.00270022 51494"
      },
      "geometry": {
        "type": "Point",
        "coordinates": [
          -82.75490831620861,
          -0.31295873765218957
        ]
      }
    },
    {
      "type": "Feature",
      "properties": {
        "norad_id": 37834,
        "name": "INTELSAT 18 (IS-18)",
        "group": "intelsat",
        "lat": 0.0010066570628132988,
        "lon": 128.931107922402,
        "alt_km": 35792.38275923509,
        "timestamp": "2025-12-20T14:38:01.626309+00:00",
        "meta_object_name": "INTELSAT 18 (IS-18)",
        "meta_object_id": "2011-056A",
        "meta_epoch": "2025-12-20T03:48:55.213632",
        "meta_mean_motion": 1.00272313,
        "meta_eccentricity": 0.00016607,
        "meta_inclination": 0.034,
        "meta_ra_of_asc_node": 280.0542,
        "meta_arg_of_pericenter": 6.287,
        "meta_mean_anomaly": 39.8848,
        "meta_ephemeris_type": 0,
        "meta_classification_type": "U",
        "meta_norad_cat_id": 37834,
        "meta_element_set_no": 999,
        "meta_rev_at_epoch": 5201,
        "meta_bstar": 0,
        "meta_mean_motion_dot": 7.7e-07,
        "meta_mean_motion_ddot": 0,
        "tle_line1": "1 37834U 11056A   25354.15897238  .00000077  00000+0  00000+0 0  9992",
        "tle_line2": "2 37834   0.0340 280.0542 0001660   6.2870  39.8848  1.00272313 52018"
      },
      "geometry": {
        "type": "Point",
        "coordinates": [
          128.931107922402,
          0.0010066570628132988
        ]
      }
    },
    {
      "type": "Feature",
      "properties": {
        "norad_id": 38098,
        "name": "INTELSAT 22 (IS-22)",
        "group": "intelsat",
        "lat": -0.0007929378239170799,
        "lon": 21.052030541172723,
        "alt_km": 35788.262915626765,
        "timestamp": "2025-12-20T14:38:01.626322+00:00",
        "meta_object_name": "INTELSAT 22 (IS-22)",
        "meta_object_id": "2012-011A",
        "meta_epoch": "2025-12-20T03:18:05.666976",
        "meta_mean_motion": 1.00270553,
        "meta_eccentricity": 0.00018117,
        "meta_inclination": 0.0147,
        "meta_ra_of_asc_node": 42.664,
        "meta_arg_of_pericenter": 234.5908,
        "meta_mean_anomaly": 293.3399,
        "meta_ephemeris_type": 0,
        "meta_classification_type": "U",
        "meta_norad_cat_id": 38098,
        "meta_element_set_no": 999,
        "meta_rev_at_epoch": 539,
        "meta_bstar": 0,
        "meta_mean_motion_dot": -3.4e-07,
        "meta_mean_motion_ddot": 0,
        "tle_line1": "1 38098U 12011A   25354.13756559 -.00000034  00000+0  00000+0 0  9999",
        "tle_line2": "2 38098   0.0147  42.6640 0001811 234.5908 293.3399  1.00270553  5394"
      },
      "geometry": {
        "type": "Point",
        "coordinates": [
          21.052030541172723,
          -0.0007929378239170799
        ]
      }
    },
    {
      "type": "Feature",
      "properties": {
        "norad_id": 38356,
        "name": "INTELSAT 19 (IS-19)",
        "group": "intelsat",
        "lat": 0.03467072358133437,
        "lon": 114.92226553496643,
        "alt_km": 35796.29989091107,
        "timestamp": "2025-12-20T14:38:01.626334+00:00",
        "meta_object_name": "INTELSAT 19 (IS-19)",
        "meta_object_id": "2012-030A",
        "meta_epoch": "2025-12-20T04:32:51.864288",
        "meta_mean_motion": 1.00271267,
        "meta_eccentricity": 0.0002734,
        "meta_inclination": 0.0114,
        "meta_ra_of_asc_node": 358.3296,
        "meta_arg_of_pericenter": 267.0055,
        "meta_mean_anomaly": 57.9081,
        "meta_ephemeris_type": 0,
        "meta_classification_type": "U",
        "meta_norad_cat_id": 38356,
        "meta_element_set_no": 999,
        "meta_rev_at_epoch": 4865,
        "meta_bstar": 0,
        "meta_mean_motion_dot": -3.2e-07,
        "meta_mean_motion_ddot": 0,
        "tle_line1": "1 38356U 12030A   25354.18948917 -.00000032  00000+0  00000+0 0  9991",
        "tle_line2": "2 38356   0.0114 358.3296 0002734 267.0055  57.9081  1.00271267 48659"
      },
      "geometry": {
        "type": "Point",
        "coordinates": [
          114.92226553496643,
          0.03467072358133437
        ]
      }
    },
    {
      "type": "Feature",
      "properties": {
        "norad_id": 38740,
        "name": "INTELSAT 20 (IS-20)",
        "group": "intelsat",
        "lat": 0.0009116849869913547,
        "lon": 17.418837937396887,
        "alt_km": 35800.03622228984,
        "timestamp": "2025-12-20T14:38:01.626346+00:00",
        "meta_object_name": "INTELSAT 20 (IS-20)",
        "meta_object_id": "2012-043A",
        "meta_epoch": "2025-12-20T03:17:05.763264",
        "meta_mean_motion": 1.00270363,
        "meta_eccentricity": 0.00033494,
        "meta_inclination": 0.0117,
        "meta_ra_of_asc_node": 103.5579,
        "meta_arg_of_pericenter": 78.8397,
        "meta_mean_anomaly": 24.344,
        "meta_ephemeris_type": 0,
        "meta_classification_type": "U",
        "meta_norad_cat_id": 38740,
        "meta_element_set_no": 999,
        "meta_rev_at_epoch": 4895,
        "meta_bstar": 0,
        "meta_mean_motion_dot": 0,
        "meta_mean_motion_ddot": 0,
        "tle_line1": "1 38740U 12043A   25354.13687226  .00000000  00000+0  00000+0 0  9994",
        "tle_line2": "2 38740   0.0117 103.5579 0003349  78.8397  24.3440  1.00270363 48959"
      },
      "geometry": {
        "type": "Point",
        "coordinates": [
          17.418837937396887,
          0.0009116849869913547
        ]
      }
    },
    {
      "type": "Feature",
      "properties": {
        "norad_id": 38749,
        "name": "INTELSAT 21 (IS-21)",
        "group": "intelsat",
        "lat": -0.0325266669177032,
        "lon": -109.06352264402709,
        "alt_km": 35779.62625674287,
        "timestamp": "2025-12-20T14:38:01.626357+00:00",
        "meta_object_name": "INTELSAT 21 (IS-21)",
        "meta_object_id": "2012-045A",
        "meta_epoch": "2025-12-20T04:23:44.378592",
        "meta_mean_motion": 1.00272561,
        "meta_eccentricity": 0.00015024,
        "meta_inclination": 0.0262,
        "meta_ra_of_asc_node": 288.2358,
        "meta_arg_of_pericenter": 331.3136,
        "meta_mean_anomaly": 197.4058,
        "meta_ephemeris_type": 0,
        "meta_classification_type": "U",
        "meta_norad_cat_id": 38749,
        "meta_element_set_no": 999,
        "meta_rev_at_epoch": 4873,
        "meta_bstar": 0,
        "meta_mean_motion_dot": -2.61e-06,
        "meta_mean_motion_ddot": 0,
        "tle_line1": "1 38749U 12045A   25354.18315253 -.00000261  00000+0  00000+0 0  9998",
        "tle_line2": "2 38749   0.0262 288.2358 0001502 331.3136 197.4058  1.00272561 48737"
      },
      "geometry": {
        "type": "Point",
        "coordinates": [
          -109.06352264402709,
          -0.0325266669177032
        ]
      }
    }
  ]
}